start=new Date('2022-07-16T00:00:00.000Z').valueOf();
sats=[{"MEAN_ANOMALY":"219.8284","TLE_LINE1":"1 52871U 22062AT  22196.91667824 -.00020183  00000-0 -13961-3 0  9997","EPHEMERIS_TYPE":"0","MEAN_MOTION":"15.73212821","REF_FRAME":"TEME","CLASSIFICATION_TYPE":"U","TLE_LINE2":"2 52871  53.2143 264.3330 0002593  17.7210 219.8284 15.73212821  1301","RCS_SIZE":"LARGE","CENTER_NAME":"EARTH","ECCENTRICITY":"0.00025930","APOAPSIS":"351.468","COUNTRY_CODE":"US","MEAN_ELEMENT_THEORY":"SGP4","RA_OF_ASC_NODE":"264.3330","OBJECT_NAME":"STARLINK-4207","GP_ID":"208206183","NORAD_CAT_ID":"52871","BSTAR":"-0.00013961000000","SEMIMAJOR_AXIS":"6727.859","EPOCH":"2022-07-15T22:00:00.999936","INCLINATION":"53.2143","FILE":"3514839","DECAY_DATE":null,"PERIAPSIS":"347.979","OBJECT_TYPE":"PAYLOAD","ELEMENT_SET_NO":"999","ARG_OF_PERICENTER":"17.7210","SITE":"AFETR","PERIOD":"91.532","REV_AT_EPOCH":"130","LAUNCH_DATE":"2022-06-17","MEAN_MOTION_DDOT":"0.0000000000000","TIME_SYSTEM":"UTC","MEAN_MOTION_DOT":"-0.00020183","OBJECT_ID":"2022-062AT"},{"ECCENTRICITY":"0.00024960","CENTER_NAME":"EARTH","APOAPSIS":"351.314","MEAN_ELEMENT_THEORY":"SGP4","COUNTRY_CODE":"US","RA_OF_ASC_NODE":"264.3352","OBJECT_NAME":"STARLINK-4213","GP_ID":"208205506","NORAD_CAT_ID":"52872","BSTAR":"-0.00001616400000","MEAN_ANOMALY":"215.6682","EPHEMERIS_TYPE":"0","TLE_LINE1":"1 52872U 22062AU  22196.91667824 -.00002895  00000-0 -16164-4 0  9997","MEAN_MOTION":"15.73244134","REF_FRAME":"TEME","CLASSIFICATION_TYPE":"U","TLE_LINE2":"2 52872  53.2143 264.3352 0002496  20.6023 215.6682 15.73244134  1301","RCS_SIZE":"LARGE","ARG_OF_PERICENTER":"20.6023","ELEMENT_SET_NO":"999","SITE":"AFETR","PERIOD":"91.531","REV_AT_EPOCH":"130","LAUNCH_DATE":"2022-06-17","MEAN_MOTION_DDOT":"0.0000000000000","TIME_SYSTEM":"UTC","MEAN_MOTION_DOT":"-0.00002895","OBJECT_ID":"2022-062AU","SEMIMAJOR_AXIS":"6727.769","EPOCH":"2022-07-15T22:00:00.999936","FILE":"3514839","INCLINATION":"53.2143","DECAY_DATE":null,"PERIAPSIS":"347.955","OBJECT_TYPE":"PAYLOAD"},{"PERIOD":"91.530","ARG_OF_PERICENTER":"21.1796","ELEMENT_SET_NO":"999","SITE":"AFETR","MEAN_MOTION_DOT":"0.00023655","OBJECT_ID":"2022-062AV","MEAN_MOTION_DDOT":"0.0000000000000","TIME_SYSTEM":"UTC","REV_AT_EPOCH":"130","LAUNCH_DATE":"2022-06-17","SEMIMAJOR_AXIS":"6727.723","EPOCH":"2022-07-15T22:00:00.999936","PERIAPSIS":"347.632","OBJECT_TYPE":"PAYLOAD","DECAY_DATE":null,"INCLINATION":"53.2145","FILE":"3514839","GP_ID":"208205619","OBJECT_NAME":"STARLINK-4211","RA_OF_ASC_NODE":"264.3323","APOAPSIS":"351.544","COUNTRY_CODE":"US","MEAN_ELEMENT_THEORY":"SGP4","ECCENTRICITY":"0.00029070","CENTER_NAME":"EARTH","BSTAR":"0.00017203000000","NORAD_CAT_ID":"52873","CLASSIFICATION_TYPE":"U","MEAN_MOTION":"15.73260377","REF_FRAME":"TEME","TLE_LINE1":"1 52873U 22062AV  22196.91667824  .00023655  00000-0  17203-3 0  9997","EPHEMERIS_TYPE":"0","MEAN_ANOMALY":"217.3499","RCS_SIZE":"LARGE","TLE_LINE2":"2 52873  53.2145 264.3323 0002907  21.1796 217.3499 15.73260377  1304"},{"TLE_LINE2":"2 52874  53.2159 264.3342 0002694  18.9499 217.8575 15.73191226  1304","RCS_SIZE":"LARGE","MEAN_ANOMALY":"217.8575","TLE_LINE1":"1 52874U 22062AW  22196.91667824  .00092615  00000-0  65723-3 0  9990","EPHEMERIS_TYPE":"0","MEAN_MOTION":"15.73191226","REF_FRAME":"TEME","CLASSIFICATION_TYPE":"U","NORAD_CAT_ID":"52874","BSTAR":"0.00065723000000","ECCENTRICITY":"0.00026940","CENTER_NAME":"EARTH","APOAPSIS":"351.598","MEAN_ELEMENT_THEORY":"SGP4","COUNTRY_CODE":"US","RA_OF_ASC_NODE":"264.3342","GP_ID":"208205393","OBJECT_NAME":"STARLINK-4210","FILE":"3514839","INCLINATION":"53.2159","DECAY_DATE":null,"OBJECT_TYPE":"PAYLOAD","PERIAPSIS":"347.973","SEMIMAJOR_AXIS":"6727.920","EPOCH":"2022-07-15T22:00:00.999936","REV_AT_EPOCH":"130","LAUNCH_DATE":"2022-06-17","MEAN_MOTION_DDOT":"0.0000000000000","TIME_SYSTEM":"UTC","MEAN_MOTION_DOT":"0.00092615","OBJECT_ID":"2022-062AW","ELEMENT_SET_NO":"999","ARG_OF_PERICENTER":"18.9499","SITE":"AFETR","PERIOD":"91.534"},{"RA_OF_ASC_NODE":"264.3304","GP_ID":"208206101","OBJECT_NAME":"STARLINK-4193","ECCENTRICITY":"0.00027050","CENTER_NAME":"EARTH","APOAPSIS":"351.379","COUNTRY_CODE":"US","MEAN_ELEMENT_THEORY":"SGP4","NORAD_CAT_ID":"52875","BSTAR":"-0.00023220000000","MEAN_MOTION":"15.73270357","REF_FRAME":"TEME","CLASSIFICATION_TYPE":"U","MEAN_ANOMALY":"222.4324","EPHEMERIS_TYPE":"0","TLE_LINE1":"1 52875U 22062AX  22196.91667824 -.00033187  00000-0 -23220-3 0  9998","TLE_LINE2":"2 52875  53.2145 264.3304 0002705  16.8230 222.4324 15.73270357  1308","RCS_SIZE":"LARGE","ARG_OF_PERICENTER":"16.8230","ELEMENT_SET_NO":"999","SITE":"AFETR","PERIOD":"91.529","MEAN_MOTION_DDOT":"0.0000000000000","TIME_SYSTEM":"UTC","MEAN_MOTION_DOT":"-0.00033187","OBJECT_ID":"2022-062AX","REV_AT_EPOCH":"130","LAUNCH_DATE":"2022-06-17","SEMIMAJOR_AXIS":"6727.695","EPOCH":"2022-07-15T22:00:00.999936","DECAY_DATE":null,"PERIAPSIS":"347.740","OBJECT_TYPE":"PAYLOAD","INCLINATION":"53.2145","FILE":"3514839"},{"CLASSIFICATION_TYPE":"U","REF_FRAME":"TEME","MEAN_MOTION":"15.73236601","TLE_LINE1":"1 52876U 22062AY  22196.91667824 -.00046009  00000-0 -32460-3 0  9992","EPHEMERIS_TYPE":"0","MEAN_ANOMALY":"222.0825","RCS_SIZE":"LARGE","TLE_LINE2":"2 52876  53.2145 264.3324 0002599  16.0171 222.0825 15.73236601  1304","GP_ID":"208205875","OBJECT_NAME":"STARLINK-4200","RA_OF_ASC_NODE":"264.3324","MEAN_ELEMENT_THEORY":"SGP4","COUNTRY_CODE":"US","APOAPSIS":"351.404","ECCENTRICITY":"0.00025990","CENTER_NAME":"EARTH","BSTAR":"-0.00032460000000","NORAD_CAT_ID":"52876","EPOCH":"2022-07-15T22:00:00.999936","SEMIMAJOR_AXIS":"6727.791","OBJECT_TYPE":"PAYLOAD","PERIAPSIS":"347.907","DECAY_DATE":null,"INCLINATION":"53.2145","FILE":"3514839","PERIOD":"91.531","SITE":"AFETR","ELEMENT_SET_NO":"999","ARG_OF_PERICENTER":"16.0171","OBJECT_ID":"2022-062AY","MEAN_MOTION_DOT":"-0.00046009","TIME_SYSTEM":"UTC","MEAN_MOTION_DDOT":"0.0000000000000","LAUNCH_DATE":"2022-06-17","REV_AT_EPOCH":"130"},{"EPHEMERIS_TYPE":"0","TLE_LINE1":"1 52877U 22062AZ  22196.91667824 -.00001087  00000-0 -33083-5 0  9994","MEAN_ANOMALY":"223.5678","CLASSIFICATION_TYPE":"U","REF_FRAME":"TEME","MEAN_MOTION":"15.73242743","RCS_SIZE":"LARGE","TLE_LINE2":"2 52877  53.2147 264.3283 0002422  16.8528 223.5678 15.73242743  1306","COUNTRY_CODE":"US","MEAN_ELEMENT_THEORY":"SGP4","APOAPSIS":"351.268","ECCENTRICITY":"0.00024220","CENTER_NAME":"EARTH","OBJECT_NAME":"STARLINK-4214","GP_ID":"208205988","RA_OF_ASC_NODE":"264.3283","BSTAR":"-0.00000330830000","NORAD_CAT_ID":"52877","EPOCH":"2022-07-15T22:00:00.999936","SEMIMAJOR_AXIS":"6727.773","INCLINATION":"53.2147","FILE":"3514839","OBJECT_TYPE":"PAYLOAD","PERIAPSIS":"348.009","DECAY_DATE":null,"PERIOD":"91.531","SITE":"AFETR","ARG_OF_PERICENTER":"16.8528","ELEMENT_SET_NO":"999","LAUNCH_DATE":"2022-06-17","REV_AT_EPOCH":"130","OBJECT_ID":"2022-062AZ","MEAN_MOTION_DOT":"-0.00001087","TIME_SYSTEM":"UTC","MEAN_MOTION_DDOT":"0.0000000000000"},{"CENTER_NAME":"EARTH","ECCENTRICITY":"0.00027200","MEAN_ELEMENT_THEORY":"SGP4","COUNTRY_CODE":"US","APOAPSIS":"351.297","RA_OF_ASC_NODE":"264.3293","OBJECT_NAME":"STARLINK-4171","GP_ID":"208205763","NORAD_CAT_ID":"52878","BSTAR":"-0.00047658000000","MEAN_ANOMALY":"214.6056","TLE_LINE1":"1 52878U 22062BA  22196.91667824 -.00067283  00000-0 -47658-3 0  9996","EPHEMERIS_TYPE":"0","REF_FRAME":"TEME","MEAN_MOTION":"15.73302901","CLASSIFICATION_TYPE":"U","TLE_LINE2":"2 52878  53.2145 264.3293 0002720  25.1646 214.6056 15.73302901  1305","RCS_SIZE":"LARGE","SITE":"AFETR","ARG_OF_PERICENTER":"25.1646","ELEMENT_SET_NO":"999","PERIOD":"91.527","LAUNCH_DATE":"2022-06-17","REV_AT_EPOCH":"130","TIME_SYSTEM":"UTC","MEAN_MOTION_DDOT":"0.0000000000000","OBJECT_ID":"2022-062BA","MEAN_MOTION_DOT":"-0.00067283","EPOCH":"2022-07-15T22:00:00.999936","SEMIMAJOR_AXIS":"6727.602","FILE":"3514839","INCLINATION":"53.2145","DECAY_DATE":null,"PERIAPSIS":"347.637","OBJECT_TYPE":"PAYLOAD"},{"TLE_LINE2":"2 52879  53.2146 264.3250 0002599  18.4538 223.7819 15.73243879  1305","RCS_SIZE":"LARGE","MEAN_ANOMALY":"223.7819","TLE_LINE1":"1 52879U 22062BB  22196.91667824 -.00001569  00000-0 -67336-5 0  9999","EPHEMERIS_TYPE":"0","MEAN_MOTION":"15.73243879","REF_FRAME":"TEME","CLASSIFICATION_TYPE":"U","NORAD_CAT_ID":"52879","BSTAR":"-0.00000673360000","ECCENTRICITY":"0.00025990","CENTER_NAME":"EARTH","APOAPSIS":"351.384","MEAN_ELEMENT_THEORY":"SGP4","COUNTRY_CODE":"US","RA_OF_ASC_NODE":"264.3250","OBJECT_NAME":"STARLINK-4139","GP_ID":"208206184","FILE":"3514839","INCLINATION":"53.2146","DECAY_DATE":null,"OBJECT_TYPE":"PAYLOAD","PERIAPSIS":"347.887","SEMIMAJOR_AXIS":"6727.770","EPOCH":"2022-07-15T22:00:00.999936","REV_AT_EPOCH":"130","LAUNCH_DATE":"2022-06-17","MEAN_MOTION_DDOT":"0.0000000000000","TIME_SYSTEM":"UTC","MEAN_MOTION_DOT":"-0.00001569","OBJECT_ID":"2022-062BB","ARG_OF_PERICENTER":"18.4538","ELEMENT_SET_NO":"999","SITE":"AFETR","PERIOD":"91.531"},{"REV_AT_EPOCH":"130","LAUNCH_DATE":"2022-06-17","MEAN_MOTION_DDOT":"0.0000000000000","TIME_SYSTEM":"UTC","MEAN_MOTION_DOT":"-0.00031749","OBJECT_ID":"2022-062BC","ARG_OF_PERICENTER":"23.0784","ELEMENT_SET_NO":"999","SITE":"AFETR","PERIOD":"91.530","INCLINATION":"53.2143","FILE":"3514839","DECAY_DATE":null,"OBJECT_TYPE":"PAYLOAD","PERIAPSIS":"347.876","SEMIMAJOR_AXIS":"6727.755","EPOCH":"2022-07-15T22:00:00.999936","NORAD_CAT_ID":"52880","BSTAR":"-0.00022212000000","ECCENTRICITY":"0.00025930","CENTER_NAME":"EARTH","APOAPSIS":"351.365","MEAN_ELEMENT_THEORY":"SGP4","COUNTRY_CODE":"US","RA_OF_ASC_NODE":"264.3249","GP_ID":"208205507","OBJECT_NAME":"STARLINK-4186","TLE_LINE2":"2 52880  53.2143 264.3249 0002593  23.0784 218.5811 15.73249041  1302","RCS_SIZE":"LARGE","MEAN_ANOMALY":"218.5811","EPHEMERIS_TYPE":"0","TLE_LINE1":"1 52880U 22062BC  22196.91667824 -.00031749  00000-0 -22212-3 0  9996","MEAN_MOTION":"15.73249041","REF_FRAME":"TEME","CLASSIFICATION_TYPE":"U"}];
